[
    {
        "Altitude(m)": 604234.625892483,
        "Argument of Periapsis(deg)": 0.0,
        "Eccentricity": 0.0,
        "Inclination(deg)": 60.0,
        "Latitude(deg)": 14.117330786096394,
        "Longitude(deg)": 101.72733188404209,
        "Mean Anomaly(deg)": 163.6364,
        "RAAN(deg)": 30.0,
        "Satellite Name": "Test1 142",
        "Satellite Number": 142,
        "Semi-Major Axis(m)": 6980739.136638005,
        "Time(s)": 0
    },
    {
        "Altitude(m)": 604223.4538632393,
        "Argument of Periapsis(deg)": 0.00010418945913296404,
        "Eccentricity": 0.0,
        "Inclination(deg)": 60.0,
        "Latitude(deg)": 13.582467066935282,
        "Longitude(deg)": 102.01424099452579,
        "Mean Anomaly(deg)": 164.25650614546183,
        "RAAN(deg)": 29.99957995086026,
        "Satellite Name": "Test1 142",
        "Satellite Number": 142,
        "Semi-Major Axis(m)": 6980739.136638005,
        "Time(s)": 10
    }
]